CCSDS_OMM_VERS = 2.0
CREATION_DATE  = 
ORIGINATOR     = 

OBJECT_NAME    = DELTA 1 R/B
OBJECT_ID      = 1989-089B
CENTER_NAME    = EARTH
REF_FRAME      = TEME
TIME_SYSTEM    = UTC
MEAN_ELEMENT_THEORY = SGP/SGP4

EPOCH          = 2025-10-26T20:53:08.700576
MEAN_MOTION    = 14.50514498
ECCENTRICITY   = .00689906
INCLINATION    = 97.0807
RA_OF_ASC_NODE = 163.5253
ARG_OF_PERICENTER = 184.2623
MEAN_ANOMALY   = 175.7997

EPHEMERIS_TYPE = 0
CLASSIFICATION_TYPE = U
NORAD_CAT_ID   = 20323
ELEMENT_SET_NO = 999
REV_AT_EPOCH   = 87633
BSTAR          = .12460946E-3
MEAN_MOTION_DOT = .467E-5
MEAN_MOTION_DDOT = 0

CCSDS_OMM_VERS = 2.0
CREATION_DATE  = 
ORIGINATOR     = 

OBJECT_NAME    = ARIANE 40 R/B
OBJECT_ID      = 1990-005H
CENTER_NAME    = EARTH
REF_FRAME      = TEME
TIME_SYSTEM    = UTC
MEAN_ELEMENT_THEORY = SGP/SGP4

EPOCH          = 2025-10-26T18:14:26.262816
MEAN_MOTION    = 14.39744167
ECCENTRICITY   = .00091116
INCLINATION    = 98.3306
RA_OF_ASC_NODE = 359.2511
ARG_OF_PERICENTER = 244.7170
MEAN_ANOMALY   = 115.3074

EPHEMERIS_TYPE = 0
CLASSIFICATION_TYPE = U
NORAD_CAT_ID   = 20443
ELEMENT_SET_NO = 999
REV_AT_EPOCH   = 87353
BSTAR          = .15570762E-3
MEAN_MOTION_DOT = .445E-5
MEAN_MOTION_DDOT = 0

CCSDS_OMM_VERS = 2.0
CREATION_DATE  = 
ORIGINATOR     = 

OBJECT_NAME    = DELTA 2 R/B(1)
OBJECT_ID      = 1990-008B
CENTER_NAME    = EARTH
REF_FRAME      = TEME
TIME_SYSTEM    = UTC
MEAN_ELEMENT_THEORY = SGP/SGP4

EPOCH          = 2025-10-26T18:39:38.832192
MEAN_MOTION    = 15.41012153
ECCENTRICITY   = .01184596
INCLINATION    = 35.6081
RA_OF_ASC_NODE = 322.8014
ARG_OF_PERICENTER = 111.3774
MEAN_ANOMALY   = 249.9644

EPHEMERIS_TYPE = 0
CLASSIFICATION_TYPE = U
NORAD_CAT_ID   = 20453
ELEMENT_SET_NO = 999
REV_AT_EPOCH   = 90537
BSTAR          = .58281775E-3
MEAN_MOTION_DOT = .31998E-3
MEAN_MOTION_DDOT = 0

CCSDS_OMM_VERS = 2.0
CREATION_DATE  = 
ORIGINATOR     = 

OBJECT_NAME    = COSMOS 2058
OBJECT_ID      = 1990-010A
CENTER_NAME    = EARTH
REF_FRAME      = TEME
TIME_SYSTEM    = UTC
MEAN_ELEMENT_THEORY = SGP/SGP4

EPOCH          = 2025-10-26T21:55:03.338976
MEAN_MOTION    = 15.09961873
ECCENTRICITY   = .00113291
INCLINATION    = 82.4704
RA_OF_ASC_NODE = 179.0845
ARG_OF_PERICENTER = 71.1916
MEAN_ANOMALY   = 289.0541

EPHEMERIS_TYPE = 0
CLASSIFICATION_TYPE = U
NORAD_CAT_ID   = 20465
ELEMENT_SET_NO = 999
REV_AT_EPOCH   = 92204
BSTAR          = .26381541E-3
MEAN_MOTION_DOT = .4314E-4
MEAN_MOTION_DDOT = 0

CCSDS_OMM_VERS = 2.0
CREATION_DATE  = 
ORIGINATOR     = 

OBJECT_NAME    = SL-14 R/B
OBJECT_ID      = 1990-010B
CENTER_NAME    = EARTH
REF_FRAME      = TEME
TIME_SYSTEM    = UTC
MEAN_ELEMENT_THEORY = SGP/SGP4

EPOCH          = 2025-10-26T17:32:44.290752
MEAN_MOTION    = 14.83406496
ECCENTRICITY   = .00204322
INCLINATION    = 82.5053
RA_OF_ASC_NODE = 33.1849
ARG_OF_PERICENTER = 25.4322
MEAN_ANOMALY   = 334.7894

EPHEMERIS_TYPE = 0
CLASSIFICATION_TYPE = U
NORAD_CAT_ID   = 20466
ELEMENT_SET_NO = 999
REV_AT_EPOCH   = 90862
BSTAR          = .8103415E-4
MEAN_MOTION_DOT = .691E-5
MEAN_MOTION_DDOT = 0

CCSDS_OMM_VERS = 2.0
CREATION_DATE  = 
ORIGINATOR     = 

OBJECT_NAME    = SL-14 R/B
OBJECT_ID      = 1990-018B
CENTER_NAME    = EARTH
REF_FRAME      = TEME
TIME_SYSTEM    = UTC
MEAN_ELEMENT_THEORY = SGP/SGP4

EPOCH          = 2025-10-26T21:21:43.820928
MEAN_MOTION    = 14.81982353
ECCENTRICITY   = .00167534
INCLINATION    = 82.5229
RA_OF_ASC_NODE = 348.1559
ARG_OF_PERICENTER = 167.3949
MEAN_ANOMALY   = 192.7688

EPHEMERIS_TYPE = 0
CLASSIFICATION_TYPE = U
NORAD_CAT_ID   = 20511
ELEMENT_SET_NO = 999
REV_AT_EPOCH   = 90276
BSTAR          = .70253301E-4
MEAN_MOTION_DOT = .582E-5
MEAN_MOTION_DDOT = 0

CCSDS_OMM_VERS = 2.0
CREATION_DATE  = 
ORIGINATOR     = 

OBJECT_NAME    = HST
OBJECT_ID      = 1990-037B
CENTER_NAME    = EARTH
REF_FRAME      = TEME
TIME_SYSTEM    = UTC
MEAN_ELEMENT_THEORY = SGP/SGP4

EPOCH          = 2025-10-26T22:47:47.747616
MEAN_MOTION    = 15.27163911
ECCENTRICITY   = .0002151
INCLINATION    = 28.4676
RA_OF_ASC_NODE = 230.7546
ARG_OF_PERICENTER = 73.5092
MEAN_ANOMALY   = 286.5739

EPHEMERIS_TYPE = 0
CLASSIFICATION_TYPE = U
NORAD_CAT_ID   = 20580
ELEMENT_SET_NO = 999
REV_AT_EPOCH   = 75283
BSTAR          = .33275401E-3
MEAN_MOTION_DOT = .9346E-4
MEAN_MOTION_DDOT = 0

CCSDS_OMM_VERS = 2.0
CREATION_DATE  = 
ORIGINATOR     = 

OBJECT_NAME    = SL-16 R/B
OBJECT_ID      = 1990-046B
CENTER_NAME    = EARTH
REF_FRAME      = TEME
TIME_SYSTEM    = UTC
MEAN_ELEMENT_THEORY = SGP/SGP4

EPOCH          = 2025-10-26T22:44:04.791552
MEAN_MOTION    = 14.14990746
ECCENTRICITY   = .00131087
INCLINATION    = 70.9999
RA_OF_ASC_NODE = 218.7866
ARG_OF_PERICENTER = 156.2282
MEAN_ANOMALY   = 203.9449

EPHEMERIS_TYPE = 0
CLASSIFICATION_TYPE = U
NORAD_CAT_ID   = 20625
ELEMENT_SET_NO = 999
REV_AT_EPOCH   = 82947
BSTAR          = .14364183E-3
MEAN_MOTION_DOT = .231E-5
MEAN_MOTION_DDOT = 0

CCSDS_OMM_VERS = 2.0
CREATION_DATE  = 
ORIGINATOR     = 

OBJECT_NAME    = COSMOS 2084
OBJECT_ID      = 1990-055A
CENTER_NAME    = EARTH
REF_FRAME      = TEME
TIME_SYSTEM    = UTC
MEAN_ELEMENT_THEORY = SGP/SGP4

EPOCH          = 2025-10-26T22:03:12.566880
MEAN_MOTION    = 15.04581281
ECCENTRICITY   = .00396553
INCLINATION    = 62.7910
RA_OF_ASC_NODE = 71.4769
ARG_OF_PERICENTER = 169.1748
MEAN_ANOMALY   = 191.0215

EPHEMERIS_TYPE = 0
CLASSIFICATION_TYPE = U
NORAD_CAT_ID   = 20663
ELEMENT_SET_NO = 999
REV_AT_EPOCH   = 91618
BSTAR          = .39678267E-3
MEAN_MOTION_DOT = .549E-4
MEAN_MOTION_DDOT = 0

CCSDS_OMM_VERS = 2.0
CREATION_DATE  = 
ORIGINATOR     = 

OBJECT_NAME    = SL-6 R/B(2)
OBJECT_ID      = 1990-055D
CENTER_NAME    = EARTH
REF_FRAME      = TEME
TIME_SYSTEM    = UTC
MEAN_ELEMENT_THEORY = SGP/SGP4

EPOCH          = 2025-10-26T20:37:54.787296
MEAN_MOTION    = 15.02733181
ECCENTRICITY   = .00107252
INCLINATION    = 62.7849
RA_OF_ASC_NODE = 348.6657
ARG_OF_PERICENTER = 265.4641
MEAN_ANOMALY   = 94.5233

EPHEMERIS_TYPE = 0
CLASSIFICATION_TYPE = U
NORAD_CAT_ID   = 20666
ELEMENT_SET_NO = 999
REV_AT_EPOCH   = 91807
BSTAR          = .2318054E-3
MEAN_MOTION_DOT = .292E-4
MEAN_MOTION_DDOT = 0

CCSDS_OMM_VERS = 2.0
CREATION_DATE  = 
ORIGINATOR     = 

OBJECT_NAME    = SL-8 R/B
OBJECT_ID      = 1990-078B
CENTER_NAME    = EARTH
REF_FRAME      = TEME
TIME_SYSTEM    = UTC
MEAN_ELEMENT_THEORY = SGP/SGP4

EPOCH          = 2025-10-26T22:59:45.723840
MEAN_MOTION    = 14.83620278
ECCENTRICITY   = .03838438
INCLINATION    = 82.9087
RA_OF_ASC_NODE = 11.0846
ARG_OF_PERICENTER = 102.1060
MEAN_ANOMALY   = 262.3430

EPHEMERIS_TYPE = 0
CLASSIFICATION_TYPE = U
NORAD_CAT_ID   = 20775
ELEMENT_SET_NO = 999
REV_AT_EPOCH   = 78943
BSTAR          = .53039752E-3
MEAN_MOTION_DOT = .17124E-3
MEAN_MOTION_DDOT = 0

CCSDS_OMM_VERS = 2.0
CREATION_DATE  = 
ORIGINATOR     = 

OBJECT_NAME    = SL-8 R/B
OBJECT_ID      = 1991-006B
CENTER_NAME    = EARTH
REF_FRAME      = TEME
TIME_SYSTEM    = UTC
MEAN_ELEMENT_THEORY = SGP/SGP4

EPOCH          = 2025-10-26T23:20:11.821056
MEAN_MOTION    = 13.77479057
ECCENTRICITY   = .00236844
INCLINATION    = 82.9393
RA_OF_ASC_NODE = 269.5050
ARG_OF_PERICENTER = 52.0005
MEAN_ANOMALY   = 8.3120

EPHEMERIS_TYPE = 0
CLASSIFICATION_TYPE = U
NORAD_CAT_ID   = 21088
ELEMENT_SET_NO = 999
REV_AT_EPOCH   = 74566
BSTAR          = .16893563E-3
MEAN_MOTION_DOT = .184E-5
MEAN_MOTION_DDOT = 0

