DELTA 1 R/B             
1 20323U 89089B   25299.87023959  .00000467  00000+0  12461-3 0  9997
2 20323  97.0807 163.5253 0068990 184.2623 175.7997 14.50514498876339
ARIANE 40 R/B           
1 20443U 90005H   25299.76002619  .00000445  00000+0  15571-3 0  9999
2 20443  98.3306 359.2511 0009111 244.7170 115.3074 14.39744167873530
DELTA 2 R/B(1)          
1 20453U 90008B   25299.77753278  .00031998  00000+0  58282-3 0  9991
2 20453  35.6081 322.8014 0118459 111.3774 249.9644 15.41012153905376
COSMOS 2058             
1 20465U 90010A   25299.91323309  .00004314  00000+0  26382-3 0  9999
2 20465  82.4704 179.0845 0011329  71.1916 289.0541 15.09961873922044
SL-14 R/B               
1 20466U 90010B   25299.73106818  .00000691  00000+0  81034-4 0  9994
2 20466  82.5053  33.1849 0020432  25.4322 334.7894 14.83406496908628
SL-14 R/B               
1 20511U 90018B   25299.89009052  .00000582  00000+0  70253-4 0  9992
2 20511  82.5229 348.1559 0016753 167.3949 192.7688 14.81982353902764
HST                     
1 20580U 90037B   25299.94985819  .00009346  00000+0  33275-3 0  9998
2 20580  28.4676 230.7546 0002151  73.5092 286.5739 15.27163911752833
SL-16 R/B               
1 20625U 90046B   25299.94727768  .00000231  00000+0  14364-3 0  9997
2 20625  70.9999 218.7866 0013108 156.2282 203.9449 14.14990746829473
COSMOS 2084             
1 20663U 90055A   25299.91889545  .00005490  00000+0  39678-3 0  9995
2 20663  62.7910  71.4769 0039655 169.1748 191.0215 15.04581281916181
SL-6 R/B(2)             
1 20666U 90055D   25299.85966189  .00002920  00000+0  23181-3 0  9998
2 20666  62.7849 348.6657 0010725 265.4641  94.5233 15.02733181918072
SL-8 R/B                
1 20775U 90078B   25299.95816810  .00017124  00000+0  53040-3 0  9999
2 20775  82.9087  11.0846 0383843 102.1060 262.3430 14.83620278789438
SL-8 R/B                
1 21088U 91006B   25299.97235904  .00000184  00000+0  16894-3 0  9994
2 21088  82.9393 269.5050 0023684  52.0005   8.3120 13.77479057745669
